[
  {
    "COMMENT": "GENERATED VIA SPACETRACK.ORG API",
    "ORIGINATOR": "18 SPCS",
    "NORAD_CAT_ID": "41240",
    "OBJECT_NAME": "JASON 3",
    "OBJECT_TYPE": "PAYLOAD",
    "CLASSIFICATION_TYPE": "U",
    "INTLDES": "16002A",
    "EPOCH": "2023-05-02 13:44:28",
    "EPOCH_MICROSECONDS": "678560",
    "MEAN_MOTION": "12.80930396",
    "ECCENTRICITY": "0.0007622",
    "INCLINATION": "66.0432",
    "RA_OF_ASC_NODE": "346.2594",
    "ARG_OF_PERICENTER": "273.3128",
    "MEAN_ANOMALY": "86.7016",
    "EPHEMERIS_TYPE": "0",
    "ELEMENT_SET_NO": "999",
    "REV_AT_EPOCH": "34078",
    "BSTAR": "0.00022475",
    "MEAN_MOTION_DOT": "-0.00000009",
    "MEAN_MOTION_DDOT": "0",
    "FILE": "3899068",
    "TLE_LINE0": "0 JASON 3",
    "TLE_LINE1": "1 41240U 16002A   23122.57255415 -.00000009  00000-0  22475-3 0  9997",
    "TLE_LINE2": "2 41240  66.0432 346.2594 0007622 273.3128  86.7016 12.80930396340781",
    "OBJECT_ID": "2016-002A",
    "OBJECT_NUMBER": "41240",
    "SEMIMAJOR_AXIS": "7715.869",
    "PERIOD": "112.418",
    "APOGEE": "1343.615",
    "PERIGEE": "1331.853",
    "DECAYED": "0"
  },
  {
    "COMMENT": "GENERATED VIA SPACETRACK.ORG API",
    "ORIGINATOR": "18 SPCS",
    "NORAD_CAT_ID": "41240",
    "OBJECT_NAME": "JASON 3",
    "OBJECT_TYPE": "PAYLOAD",
    "CLASSIFICATION_TYPE": "U",
    "INTLDES": "16002A",
    "EPOCH": "2023-05-02 19:21:45",
    "EPOCH_MICROSECONDS": "955296",
    "MEAN_MOTION": "12.80930417",
    "ECCENTRICITY": "0.0007619",
    "INCLINATION": "66.0432",
    "RA_OF_ASC_NODE": "345.7729",
    "ARG_OF_PERICENTER": "273.2731",
    "MEAN_ANOMALY": "86.7412",
    "EPHEMERIS_TYPE": "0",
    "ELEMENT_SET_NO": "999",
    "REV_AT_EPOCH": "34081",
    "BSTAR": "0.00022995",
    "MEAN_MOTION_DOT": "-0.00000008",
    "MEAN_MOTION_DDOT": "0",
    "FILE": "3899277",
    "TLE_LINE0": "0 JASON 3",
    "TLE_LINE1": "1 41240U 16002A   23122.80678189 -.00000008  00000-0  22995-3 0  9996",
    "TLE_LINE2": "2 41240  66.0432 345.7729 0007619 273.2731  86.7412 12.80930417340818",
    "OBJECT_ID": "2016-002A",
    "OBJECT_NUMBER": "41240",
    "SEMIMAJOR_AXIS": "7715.868",
    "PERIOD": "112.418",
    "APOGEE": "1343.612",
    "PERIGEE": "1331.855",
    "DECAYED": "0"
  },
  {
    "COMMENT": "GENERATED VIA SPACETRACK.ORG API",
    "ORIGINATOR": "18 SPCS",
    "NORAD_CAT_ID": "41240",
    "OBJECT_NAME": "JASON 3",
    "OBJECT_TYPE": "PAYLOAD",
    "CLASSIFICATION_TYPE": "U",
    "INTLDES": "16002A",
    "EPOCH": "2023-05-03 14:06:03",
    "EPOCH_MICROSECONDS": "545856",
    "MEAN_MOTION": "12.80930461",
    "ECCENTRICITY": "0.0007616",
    "INCLINATION": "66.043",
    "RA_OF_ASC_NODE": "344.1513",
    "ARG_OF_PERICENTER": "273.2793",
    "MEAN_ANOMALY": "86.735",
    "EPHEMERIS_TYPE": "0",
    "ELEMENT_SET_NO": "999",
    "REV_AT_EPOCH": "34091",
    "BSTAR": "0.00020357",
    "MEAN_MOTION_DOT": "-0.00000014",
    "MEAN_MOTION_DDOT": "0",
    "FILE": "3899966",
    "TLE_LINE0": "0 JASON 3",
    "TLE_LINE1": "1 41240U 16002A   23123.58754104 -.00000014  00000-0  20357-3 0  9991",
    "TLE_LINE2": "2 41240  66.0430 344.1513 0007616 273.2793  86.7350 12.80930461340916",
    "OBJECT_ID": "2016-002A",
    "OBJECT_NUMBER": "41240",
    "SEMIMAJOR_AXIS": "7715.868",
    "PERIOD": "112.418",
    "APOGEE": "1343.610",
    "PERIGEE": "1331.857",
    "DECAYED": "0"
  },
  {
    "COMMENT": "GENERATED VIA SPACETRACK.ORG API",
    "ORIGINATOR": "18 SPCS",
    "NORAD_CAT_ID": "41240",
    "OBJECT_NAME": "JASON 3",
    "OBJECT_TYPE": "PAYLOAD",
    "CLASSIFICATION_TYPE": "U",
    "INTLDES": "16002A",
    "EPOCH": "2023-05-03 19:43:20",
    "EPOCH_MICROSECONDS": "819136",
    "MEAN_MOTION": "12.80930474",
    "ECCENTRICITY": "0.0007615",
    "INCLINATION": "66.043",
    "RA_OF_ASC_NODE": "343.6647",
    "ARG_OF_PERICENTER": "273.2722",
    "MEAN_ANOMALY": "86.7422",
    "EPHEMERIS_TYPE": "0",
    "ELEMENT_SET_NO": "999",
    "REV_AT_EPOCH": "34108",
    "BSTAR": "0.0001986",
    "MEAN_MOTION_DOT": "-0.00000015",
    "MEAN_MOTION_DDOT": "0",
    "FILE": "3900112",
    "TLE_LINE0": "0 JASON 3",
    "TLE_LINE1": "1 41240U 16002A   23123.82176874 -.00000015  00000-0  19860-3 0  9998",
    "TLE_LINE2": "2 41240  66.0430 343.6647 0007615 273.2722  86.7422 12.80930474341082",
    "OBJECT_ID": "2016-002A",
    "OBJECT_NUMBER": "41240",
    "SEMIMAJOR_AXIS": "7715.868",
    "PERIOD": "112.418",
    "APOGEE": "1343.609",
    "PERIGEE": "1331.858",
    "DECAYED": "0"
  },
  {
    "COMMENT": "GENERATED VIA SPACETRACK.ORG API",
    "ORIGINATOR": "18 SPCS",
    "NORAD_CAT_ID": "41240",
    "OBJECT_NAME": "JASON 3",
    "OBJECT_TYPE": "PAYLOAD",
    "CLASSIFICATION_TYPE": "U",
    "INTLDES": "16002A",
    "EPOCH": "2023-05-03 21:35:46",
    "EPOCH_MICROSECONDS": "577760",
    "MEAN_MOTION": "12.80930487",
    "ECCENTRICITY": "0.0007616",
    "INCLINATION": "66.043",
    "RA_OF_ASC_NODE": "343.5026",
    "ARG_OF_PERICENTER": "273.2795",
    "MEAN_ANOMALY": "86.7349",
    "EPHEMERIS_TYPE": "0",
    "ELEMENT_SET_NO": "999",
    "REV_AT_EPOCH": "34095",
    "BSTAR": "0.0002109",
    "MEAN_MOTION_DOT": "-0.00000012",
    "MEAN_MOTION_DDOT": "0",
    "FILE": "3900281",
    "TLE_LINE0": "0 JASON 3",
    "TLE_LINE1": "1 41240U 16002A   23123.89984465 -.00000012  00000-0  21090-3 0  9993",
    "TLE_LINE2": "2 41240  66.0430 343.5026 0007616 273.2795  86.7349 12.80930487340950",
    "OBJECT_ID": "2016-002A",
    "OBJECT_NUMBER": "41240",
    "SEMIMAJOR_AXIS": "7715.868",
    "PERIOD": "112.418",
    "APOGEE": "1343.610",
    "PERIGEE": "1331.857",
    "DECAYED": "0"
  },
  {
    "COMMENT": "GENERATED VIA SPACETRACK.ORG API",
    "ORIGINATOR": "18 SPCS",
    "NORAD_CAT_ID": "41240",
    "OBJECT_NAME": "JASON 3",
    "OBJECT_TYPE": "PAYLOAD",
    "CLASSIFICATION_TYPE": "U",
    "INTLDES": "16002A",
    "EPOCH": "2023-05-04 12:35:12",
    "EPOCH_MICROSECONDS": "644160",
    "MEAN_MOTION": "12.80930534",
    "ECCENTRICITY": "0.0007611",
    "INCLINATION": "66.0429",
    "RA_OF_ASC_NODE": "342.2053",
    "ARG_OF_PERICENTER": "273.2008",
    "MEAN_ANOMALY": "86.8136",
    "EPHEMERIS_TYPE": "0",
    "ELEMENT_SET_NO": "999",
    "REV_AT_EPOCH": "34103",
    "BSTAR": "0.00019481",
    "MEAN_MOTION_DOT": "-0.00000016",
    "MEAN_MOTION_DDOT": "0",
    "FILE": "3900892",
    "TLE_LINE0": "0 JASON 3",
    "TLE_LINE1": "1 41240U 16002A   23124.52445190 -.00000016  00000-0  19481-3 0  9996",
    "TLE_LINE2": "2 41240  66.0429 342.2053 0007611 273.2008  86.8136 12.80930534341034",
    "OBJECT_ID": "2016-002A",
    "OBJECT_NUMBER": "41240",
    "SEMIMAJOR_AXIS": "7715.868",
    "PERIOD": "112.418",
    "APOGEE": "1343.606",
    "PERIGEE": "1331.860",
    "DECAYED": "0"
  },
  {
    "COMMENT": "GENERATED VIA SPACETRACK.ORG API",
    "ORIGINATOR": "18 SPCS",
    "NORAD_CAT_ID": "41240",
    "OBJECT_NAME": "JASON 3",
    "OBJECT_TYPE": "PAYLOAD",
    "CLASSIFICATION_TYPE": "U",
    "INTLDES": "16002A",
    "EPOCH": "2023-05-04 20:04:55",
    "EPOCH_MICROSECONDS": "675200",
    "MEAN_MOTION": "12.80930565",
    "ECCENTRICITY": "0.000761",
    "INCLINATION": "66.0428",
    "RA_OF_ASC_NODE": "341.5566",
    "ARG_OF_PERICENTER": "273.1885",
    "MEAN_ANOMALY": "86.826",
    "EPHEMERIS_TYPE": "0",
    "ELEMENT_SET_NO": "999",
    "REV_AT_EPOCH": "34121",
    "BSTAR": "0.00020795",
    "MEAN_MOTION_DOT": "-0.00000013",
    "MEAN_MOTION_DDOT": "0",
    "FILE": "3900990",
    "TLE_LINE0": "0 JASON 3",
    "TLE_LINE1": "1 41240U 16002A   23124.83675550 -.00000013  00000-0  20795-3 0  9992",
    "TLE_LINE2": "2 41240  66.0428 341.5566 0007610 273.1885  86.8260 12.80930565341217",
    "OBJECT_ID": "2016-002A",
    "OBJECT_NUMBER": "41240",
    "SEMIMAJOR_AXIS": "7715.868",
    "PERIOD": "112.418",
    "APOGEE": "1343.605",
    "PERIGEE": "1331.861",
    "DECAYED": "0"
  },
  {
    "COMMENT": "GENERATED VIA SPACETRACK.ORG API",
    "ORIGINATOR": "18 SPCS",
    "NORAD_CAT_ID": "41240",
    "OBJECT_NAME": "JASON 3",
    "OBJECT_TYPE": "PAYLOAD",
    "CLASSIFICATION_TYPE": "U",
    "INTLDES": "16002A",
    "EPOCH": "2023-05-04 20:04:55",
    "EPOCH_MICROSECONDS": "675200",
    "MEAN_MOTION": "12.80930565",
    "ECCENTRICITY": "0.000761",
    "INCLINATION": "66.0428",
    "RA_OF_ASC_NODE": "341.5566",
    "ARG_OF_PERICENTER": "273.1885",
    "MEAN_ANOMALY": "86.826",
    "EPHEMERIS_TYPE": "0",
    "ELEMENT_SET_NO": "999",
    "REV_AT_EPOCH": "34107",
    "BSTAR": "0.00020795",
    "MEAN_MOTION_DOT": "-0.00000013",
    "MEAN_MOTION_DDOT": "0",
    "FILE": "3901186",
    "TLE_LINE0": "0 JASON 3",
    "TLE_LINE1": "1 41240U 16002A   23124.83675550 -.00000013  00000-0  20795-3 0  9992",
    "TLE_LINE2": "2 41240  66.0428 341.5566 0007610 273.1885  86.8260 12.80930565341071",
    "OBJECT_ID": "2016-002A",
    "OBJECT_NUMBER": "41240",
    "SEMIMAJOR_AXIS": "7715.868",
    "PERIOD": "112.418",
    "APOGEE": "1343.605",
    "PERIGEE": "1331.861",
    "DECAYED": "0"
  },
  {
    "COMMENT": "GENERATED VIA SPACETRACK.ORG API",
    "ORIGINATOR": "18 SPCS",
    "NORAD_CAT_ID": "41240",
    "OBJECT_NAME": "JASON 3",
    "OBJECT_TYPE": "PAYLOAD",
    "CLASSIFICATION_TYPE": "U",
    "INTLDES": "16002A",
    "EPOCH": "2023-05-05 20:26:30",
    "EPOCH_MICROSECONDS": "529536",
    "MEAN_MOTION": "12.80930614",
    "ECCENTRICITY": "0.0007608",
    "INCLINATION": "66.0427",
    "RA_OF_ASC_NODE": "339.4485",
    "ARG_OF_PERICENTER": "273.1463",
    "MEAN_ANOMALY": "86.8682",
    "EPHEMERIS_TYPE": "0",
    "ELEMENT_SET_NO": "999",
    "REV_AT_EPOCH": "34134",
    "BSTAR": "0.00017989",
    "MEAN_MOTION_DOT": "-0.0000002",
    "MEAN_MOTION_DDOT": "0",
    "FILE": "3901815",
    "TLE_LINE0": "0 JASON 3",
    "TLE_LINE1": "1 41240U 16002A   23125.85174224 -.00000020  00000-0  17989-3 0  9996",
    "TLE_LINE2": "2 41240  66.0427 339.4485 0007608 273.1463  86.8682 12.80930614341348",
    "OBJECT_ID": "2016-002A",
    "OBJECT_NUMBER": "41240",
    "SEMIMAJOR_AXIS": "7715.868",
    "PERIOD": "112.418",
    "APOGEE": "1343.603",
    "PERIGEE": "1331.862",
    "DECAYED": "0"
  }
]